ONEWEB-0706             
1 61611U 24188T   25076.88903816  .00000133  00000+0  28652-3 0  9993
2 61611  87.9322 127.2199 0001739 134.1695 225.9583 13.23001741 23593
ONEWEB-0707             
1 61612U 24188U   25076.83006789  .00000363  00000+0  10036-2 0  9993
2 61612  87.8832 127.2203 0001315  85.6601 274.4676 13.10368378 23558
ONEWEB-0708             
1 61613U 24188V   25076.69558512 -.00000581  00000+0 -16993-2 0  9996
2 61613  87.8889 127.2052 0001192 106.1431 253.9827 13.10378287 23512
